SL-3 R/B                
1 10114U 77057B   17345.93726977  .00000346  00000-0  20686-4 0  9992
2 10114  97.2056 159.4099 0015478  61.4997 298.7794 15.16915661210297
